{
  "type": "FeatureCollection",
  "features": [
    {
      "type": "Feature",
      "properties": {
        "norad_id": 41862,
        "name": "GSAT0214 (GALILEO 18)",
        "group": "galileo",
        "lat": NaN,
        "lon": NaN,
        "alt_km": NaN,
        "timestamp": "2025-12-01T03:03:41.147831+00:00",
        "meta": {
          "OBJECT_NAME": "GSAT0214 (GALILEO 18)",
          "OBJECT_ID": "2016-069D",
          "EPOCH": "2025-11-29T16:11:01.864032",
          "MEAN_MOTION": 1.70474561,
          "ECCENTRICITY": 0.00010374,
          "INCLINATION": 55.3728,
          "RA_OF_ASC_NODE": 106.6081,
          "ARG_OF_PERICENTER": 291.61,
          "MEAN_ANOMALY": 68.3572,
          "EPHEMERIS_TYPE": 0,
          "CLASSIFICATION_TYPE": "U",
          "NORAD_CAT_ID": 41862,
          "ELEMENT_SET_NO": 999,
          "REV_AT_EPOCH": 5624,
          "BSTAR": 0,
          "MEAN_MOTION_DOT": 5.1e-07,
          "MEAN_MOTION_DDOT": 0
        }
      },
      "geometry": {
        "type": "Point",
        "coordinates": [
          NaN,
          NaN
        ]
      }
    },
    {
      "type": "Feature",
      "properties": {
        "norad_id": 43055,
        "name": "GSAT0215 (GALILEO 19)",
        "group": "galileo",
        "lat": NaN,
        "lon": NaN,
        "alt_km": NaN,
        "timestamp": "2025-12-01T03:03:41.147850+00:00",
        "meta": {
          "OBJECT_NAME": "GSAT0215 (GALILEO 19)",
          "OBJECT_ID": "2017-079A",
          "EPOCH": "2025-11-29T13:52:03.216864",
          "MEAN_MOTION": 1.70473718,
          "ECCENTRICITY": 0.0001588,
          "INCLINATION": 55.1353,
          "RA_OF_ASC_NODE": 227.0004,
          "ARG_OF_PERICENTER": 310.5234,
          "MEAN_ANOMALY": 49.536,
          "EPHEMERIS_TYPE": 0,
          "CLASSIFICATION_TYPE": "U",
          "NORAD_CAT_ID": 43055,
          "ELEMENT_SET_NO": 999,
          "REV_AT_EPOCH": 4958,
          "BSTAR": 0,
          "MEAN_MOTION_DOT": 2.7e-07,
          "MEAN_MOTION_DDOT": 0
        }
      },
      "geometry": {
        "type": "Point",
        "coordinates": [
          NaN,
          NaN
        ]
      }
    },
    {
      "type": "Feature",
      "properties": {
        "norad_id": 43056,
        "name": "GSAT0216 (GALILEO 20)",
        "group": "galileo",
        "lat": NaN,
        "lon": NaN,
        "alt_km": NaN,
        "timestamp": "2025-12-01T03:03:41.147856+00:00",
        "meta": {
          "OBJECT_NAME": "GSAT0216 (GALILEO 20)",
          "OBJECT_ID": "2017-079B",
          "EPOCH": "2025-11-29T06:46:51.113856",
          "MEAN_MOTION": 1.70473865,
          "ECCENTRICITY": 0.00027653,
          "INCLINATION": 55.1352,
          "RA_OF_ASC_NODE": 227.0086,
          "ARG_OF_PERICENTER": 311.1377,
          "MEAN_ANOMALY": 48.9116,
          "EPHEMERIS_TYPE": 0,
          "CLASSIFICATION_TYPE": "U",
          "NORAD_CAT_ID": 43056,
          "ELEMENT_SET_NO": 999,
          "REV_AT_EPOCH": 4959,
          "BSTAR": 0,
          "MEAN_MOTION_DOT": 2.7e-07,
          "MEAN_MOTION_DDOT": 0
        }
      },
      "geometry": {
        "type": "Point",
        "coordinates": [
          NaN,
          NaN
        ]
      }
    },
    {
      "type": "Feature",
      "properties": {
        "norad_id": 43057,
        "name": "GSAT0217 (GALILEO 21)",
        "group": "galileo",
        "lat": NaN,
        "lon": NaN,
        "alt_km": NaN,
        "timestamp": "2025-12-01T03:03:41.147861+00:00",
        "meta": {
          "OBJECT_NAME": "GSAT0217 (GALILEO 21)",
          "OBJECT_ID": "2017-079C",
          "EPOCH": "2025-11-29T12:04:41.145600",
          "MEAN_MOTION": 1.70473704,
          "ECCENTRICITY": 0.00027563,
          "INCLINATION": 55.1326,
          "RA_OF_ASC_NODE": 227.0006,
          "ARG_OF_PERICENTER": 340.6935,
          "MEAN_ANOMALY": 19.3693,
          "EPHEMERIS_TYPE": 0,
          "CLASSIFICATION_TYPE": "U",
          "NORAD_CAT_ID": 43057,
          "ELEMENT_SET_NO": 999,
          "REV_AT_EPOCH": 4958,
          "BSTAR": 0,
          "MEAN_MOTION_DOT": 2.7e-07,
          "MEAN_MOTION_DDOT": 0
        }
      },
      "geometry": {
        "type": "Point",
        "coordinates": [
          NaN,
          NaN
        ]
      }
    },
    {
      "type": "Feature",
      "properties": {
        "norad_id": 43058,
        "name": "GSAT0218 (GALILEO 22)",
        "group": "galileo",
        "lat": NaN,
        "lon": NaN,
        "alt_km": NaN,
        "timestamp": "2025-12-01T03:03:41.147868+00:00",
        "meta": {
          "OBJECT_NAME": "GSAT0218 (GALILEO 22)",
          "OBJECT_ID": "2017-079D",
          "EPOCH": "2025-11-30T07:26:14.163360",
          "MEAN_MOTION": 1.70473798,
          "ECCENTRICITY": 0.0002943,
          "INCLINATION": 55.1332,
          "RA_OF_ASC_NODE": 226.9759,
          "ARG_OF_PERICENTER": 303.6931,
          "MEAN_ANOMALY": 56.3534,
          "EPHEMERIS_TYPE": 0,
          "CLASSIFICATION_TYPE": "U",
          "NORAD_CAT_ID": 43058,
          "ELEMENT_SET_NO": 999,
          "REV_AT_EPOCH": 4962,
          "BSTAR": 0,
          "MEAN_MOTION_DOT": 2.9e-07,
          "MEAN_MOTION_DDOT": 0
        }
      },
      "geometry": {
        "type": "Point",
        "coordinates": [
          NaN,
          NaN
        ]
      }
    },
    {
      "type": "Feature",
      "properties": {
        "norad_id": 43564,
        "name": "GSAT0221 (GALILEO 25)",
        "group": "galileo",
        "lat": NaN,
        "lon": NaN,
        "alt_km": NaN,
        "timestamp": "2025-12-01T03:03:41.147893+00:00",
        "meta": {
          "OBJECT_NAME": "GSAT0221 (GALILEO 25)",
          "OBJECT_ID": "2018-060A",
          "EPOCH": "2025-11-27T06:42:36.849024",
          "MEAN_MOTION": 1.70475843,
          "ECCENTRICITY": 0.0006566,
          "INCLINATION": 57.2311,
          "RA_OF_ASC_NODE": 347.2356,
          "ARG_OF_PERICENTER": 278.9073,
          "MEAN_ANOMALY": 81.0612,
          "EPHEMERIS_TYPE": 0,
          "CLASSIFICATION_TYPE": "U",
          "NORAD_CAT_ID": 43564,
          "ELEMENT_SET_NO": 999,
          "REV_AT_EPOCH": 4572,
          "BSTAR": 0,
          "MEAN_MOTION_DOT": -5.6e-07,
          "MEAN_MOTION_DDOT": 0
        }
      },
      "geometry": {
        "type": "Point",
        "coordinates": [
          NaN,
          NaN
        ]
      }
    },
    {
      "type": "Feature",
      "properties": {
        "norad_id": 43565,
        "name": "GSAT0222 (GALILEO 26)",
        "group": "galileo",
        "lat": NaN,
        "lon": NaN,
        "alt_km": NaN,
        "timestamp": "2025-12-01T03:03:41.147901+00:00",
        "meta": {
          "OBJECT_NAME": "GSAT0222 (GALILEO 26)",
          "OBJECT_ID": "2018-060B",
          "EPOCH": "2025-11-29T06:12:28.687968",
          "MEAN_MOTION": 1.70475509,
          "ECCENTRICITY": 0.00061732,
          "INCLINATION": 57.2346,
          "RA_OF_ASC_NODE": 347.1853,
          "ARG_OF_PERICENTER": 259.4518,
          "MEAN_ANOMALY": 100.5223,
          "EPHEMERIS_TYPE": 0,
          "CLASSIFICATION_TYPE": "U",
          "NORAD_CAT_ID": 43565,
          "ELEMENT_SET_NO": 999,
          "REV_AT_EPOCH": 4580,
          "BSTAR": 0,
          "MEAN_MOTION_DOT": -5.5e-07,
          "MEAN_MOTION_DDOT": 0
        }
      },
      "geometry": {
        "type": "Point",
        "coordinates": [
          NaN,
          NaN
        ]
      }
    },
    {
      "type": "Feature",
      "properties": {
        "norad_id": 43566,
        "name": "GSAT0219 (GALILEO 23)",
        "group": "galileo",
        "lat": NaN,
        "lon": NaN,
        "alt_km": NaN,
        "timestamp": "2025-12-01T03:03:41.147906+00:00",
        "meta": {
          "OBJECT_NAME": "GSAT0219 (GALILEO 23)",
          "OBJECT_ID": "2018-060C",
          "EPOCH": "2025-11-30T01:35:38.037408",
          "MEAN_MOTION": 1.70475682,
          "ECCENTRICITY": 0.00057799,
          "INCLINATION": 57.2334,
          "RA_OF_ASC_NODE": 347.165,
          "ARG_OF_PERICENTER": 285.7575,
          "MEAN_ANOMALY": 74.2225,
          "EPHEMERIS_TYPE": 0,
          "CLASSIFICATION_TYPE": "U",
          "NORAD_CAT_ID": 43566,
          "ELEMENT_SET_NO": 999,
          "REV_AT_EPOCH": 4579,
          "BSTAR": 0,
          "MEAN_MOTION_DOT": -5.6e-07,
          "MEAN_MOTION_DDOT": 0
        }
      },
      "geometry": {
        "type": "Point",
        "coordinates": [
          NaN,
          NaN
        ]
      }
    }
  ]
}