GSAT0214 (GALILEO 18)   
1 41862U 16069D   25333.67432713  .00000051  00000+0  00000+0 0  9996
2 41862  55.3728 106.6081 0001037 291.6100  68.3572  1.70474561 56248
GSAT0215 (GALILEO 19)   
1 43055U 17079A   25333.57781501  .00000027  00000+0  00000+0 0  9998
2 43055  55.1353 227.0004 0001588 310.5234  49.5360  1.70473718 49587
GSAT0216 (GALILEO 20)   
1 43056U 17079B   25333.28253604  .00000027  00000+0  00000+0 0  9995
2 43056  55.1352 227.0086 0002765 311.1377  48.9116  1.70473865 49596
GSAT0217 (GALILEO 21)   
1 43057U 17079C   25333.50325400  .00000027  00000+0  00000+0 0  9995
2 43057  55.1326 227.0006 0002756 340.6935  19.3693  1.70473704 49580
GSAT0218 (GALILEO 22)   
1 43058U 17079D   25334.30988615  .00000029  00000+0  00000+0 0  9990
2 43058  55.1332 226.9759 0002942 303.6931  56.3534  1.70473798 49626
GSAT0221 (GALILEO 25)   
1 43564U 18060A   25331.27959316 -.00000056  00000+0  00000+0 0  9993
2 43564  57.2311 347.2356 0006566 278.9073  81.0612  1.70475843 45727
GSAT0222 (GALILEO 26)   
1 43565U 18060B   25333.25866537 -.00000055  00000+0  00000+0 0  9995
2 43565  57.2346 347.1853 0006173 259.4518 100.5223  1.70475509 45802
GSAT0219 (GALILEO 23)   
1 43566U 18060C   25334.06641247 -.00000056  00000+0  00000+0 0  9996
2 43566  57.2334 347.1650 0005779 285.7575  74.2225  1.70475682 45790
